BRO-10
1 58331U 23174CD  25333.23693855  .00062125  00000+0  99558-3 0  9998
2 58331  97.3895  57.4828 0006223 117.3768 242.8118 15.52870112115042